ONEWEB-0628             
1 55169U 23004AF  24329.91241949  .00000445  00000+0  12017-2 0  9999
2 55169  87.8870 104.0000 0002180 113.9499 246.1858 13.12444762 93367
ONEWEB-0629             
1 55170U 23004AG  24329.82002661 -.00000378  00000+0 -10057-2 0  9996
2 55170  87.9080 119.2914 0002004  96.1794 263.9566 13.17648204 92601
ONEWEB-0631             
1 55171U 23004AH  24329.72376498 -.00000290  00000+0 -76831-3 0  9994
2 55171  87.9110  88.7343 0001195 121.7554 238.3695 13.18686324 94620
ONEWEB-0709             
1 55172U 23004AJ  24330.41190258 -.00000481  00000+0 -13935-2 0  9998
2 55172  87.8882 134.4275 0000520  84.6678 275.4510 13.11418151 91331
ONEWEB-0710             
1 55173U 23004AK  24330.36594272  .00000082  00000+0  17870-3 0  9995
2 55173  87.9076 119.2059 0001634 101.0067 259.1249 13.17649240 92679
ONEWEB-0711             
1 55174U 23004AL  24330.00161591  .00000435  00000+0  11928-2 0  9990
2 55174  87.8880 134.4772 0001936 116.9575 243.1751 13.11414354 91240
ONEWEB-0713             
1 55175U 23004AM  24330.02025904 -.00000295  00000+0 -86740-3 0  9991
2 55175  87.8879 134.4817 0001663  98.8216 261.3100 13.11414582 91227
ONEWEB-0715             
1 55176U 23004AN  24330.01516817 -.00000148  00000+0 -45276-3 0  9995
2 55176  87.8879 134.4825 0001105 100.3157 259.8096 13.11413486 91274
